{
  "type": "FeatureCollection",
  "features": [
    {
      "type": "Feature",
      "properties": {
        "norad_id": 39617,
        "name": "ASTRA 5B (EGNOS/PRN 123)",
        "group": "gnss",
        "lat": -0.025442816772099745,
        "lon": -160.27001795917403,
        "alt_km": 35778.24796181205,
        "timestamp": "2025-12-21T05:44:51.829461+00:00",
        "meta_object_name": "ASTRA 5B (EGNOS/PRN 123)",
        "meta_object_id": "2014-011B",
        "meta_epoch": "2025-12-19T19:52:38.507808",
        "meta_mean_motion": 1.00270681,
        "meta_eccentricity": 0.0003845,
        "meta_inclination": 0.0429,
        "meta_ra_of_asc_node": 358.0682,
        "meta_arg_of_pericenter": 262.2755,
        "meta_mean_anomaly": 149.9909,
        "meta_ephemeris_type": 0,
        "meta_classification_type": "U",
        "meta_norad_cat_id": 39617,
        "meta_element_set_no": 999,
        "meta_rev_at_epoch": 4286,
        "meta_bstar": 0,
        "meta_mean_motion_dot": 1.61e-06,
        "meta_mean_motion_ddot": 0,
        "tle_line1": "1 39617U 14011B   25353.82822347  .00000161  00000+0  00000+0 0  9993",
        "tle_line2": "2 39617   0.0429 358.0682 0003845 262.2755 149.9909  1.00270681 42860"
      },
      "geometry": {
        "type": "Point",
        "coordinates": [
          -160.27001795917403,
          -0.025442816772099745
        ]
      }
    },
    {
      "type": "Feature",
      "properties": {
        "norad_id": 39620,
        "name": "COSMOS 2492 (754)",
        "group": "gnss",
        "lat": 10.352928065298496,
        "lon": 135.16650637481803,
        "alt_km": 19158.429735964117,
        "timestamp": "2025-12-21T05:44:51.829475+00:00",
        "meta_object_name": "COSMOS 2492 (754)",
        "meta_object_id": "2014-012A",
        "meta_epoch": "2025-12-20T01:56:38.014656",
        "meta_mean_motion": 2.13103387,
        "meta_eccentricity": 0.00142311,
        "meta_inclination": 65.4033,
        "meta_ra_of_asc_node": 320.0211,
        "meta_arg_of_pericenter": 312.7815,
        "meta_mean_anomaly": 47.0902,
        "meta_ephemeris_type": 0,
        "meta_classification_type": "U",
        "meta_norad_cat_id": 39620,
        "meta_element_set_no": 999,
        "meta_rev_at_epoch": 9142,
        "meta_bstar": 0,
        "meta_mean_motion_dot": -5.4e-07,
        "meta_mean_motion_ddot": 0,
        "tle_line1": "1 39620U 14012A   25354.08099554 -.00000054  00000+0  00000+0 0  9995",
        "tle_line2": "2 39620  65.4033 320.0211 0014231 312.7815  47.0902  2.13103387 91426"
      },
      "geometry": {
        "type": "Point",
        "coordinates": [
          135.16650637481803,
          10.352928065298496
        ]
      }
    },
    {
      "type": "Feature",
      "properties": {
        "norad_id": 39635,
        "name": "IRNSS-1B",
        "group": "gnss",
        "lat": -5.709157693376839,
        "lon": -126.75207034803438,
        "alt_km": 35799.525672980024,
        "timestamp": "2025-12-21T05:44:51.829486+00:00",
        "meta_object_name": "IRNSS-1B",
        "meta_object_id": "2014-017A",
        "meta_epoch": "2025-12-20T18:37:43.503744",
        "meta_mean_motion": 1.00271109,
        "meta_eccentricity": 0.00186822,
        "meta_inclination": 29.2525,
        "meta_ra_of_asc_node": 243.4669,
        "meta_arg_of_pericenter": 249.4131,
        "meta_mean_anomaly": 291.5281,
        "meta_ephemeris_type": 0,
        "meta_classification_type": "U",
        "meta_norad_cat_id": 39635,
        "meta_element_set_no": 999,
        "meta_rev_at_epoch": 4300,
        "meta_bstar": 0,
        "meta_mean_motion_dot": 1.52e-06,
        "meta_mean_motion_ddot": 0,
        "tle_line1": "1 39635U 14017A   25354.77619796  .00000152  00000+0  00000+0 0  9996",
        "tle_line2": "2 39635  29.2525 243.4669 0018682 249.4131 291.5281  1.00271109 43002"
      },
      "geometry": {
        "type": "Point",
        "coordinates": [
          -126.75207034803438,
          -5.709157693376839
        ]
      }
    },
    {
      "type": "Feature",
      "properties": {
        "norad_id": 39727,
        "name": "LUCH 5V (SDCM/PRN 141)",
        "group": "gnss",
        "lat": -1.5886220456700624,
        "lon": -89.10052317835998,
        "alt_km": 35769.814707035635,
        "timestamp": "2025-12-21T05:44:51.829498+00:00",
        "meta_object_name": "LUCH 5V (SDCM/PRN 141)",
        "meta_object_id": "2014-023A",
        "meta_epoch": "2025-12-20T18:56:58.267392",
        "meta_mean_motion": 1.0027596,
        "meta_eccentricity": 0.00037272,
        "meta_inclination": 4.6888,
        "meta_ra_of_asc_node": 71.4751,
        "meta_arg_of_pericenter": 213.0255,
        "meta_mean_anomaly": 184.0484,
        "meta_ephemeris_type": 0,
        "meta_classification_type": "U",
        "meta_norad_cat_id": 39727,
        "meta_element_set_no": 999,
        "meta_rev_at_epoch": 4257,
        "meta_bstar": 0,
        "meta_mean_motion_dot": -2.49e-06,
        "meta_mean_motion_ddot": 0,
        "tle_line1": "1 39727U 14023A   25354.78956328 -.00000249  00000+0  00000+0 0  9999",
        "tle_line2": "2 39727   4.6888  71.4751 0003727 213.0255 184.0484  1.00275960 42573"
      },
      "geometry": {
        "type": "Point",
        "coordinates": [
          -89.10052317835998,
          -1.5886220456700624
        ]
      }
    },
    {
      "type": "Feature",
      "properties": {
        "norad_id": 39741,
        "name": "GPS BIIF-6  (PRN 06)",
        "group": "gnss",
        "lat": -11.68851151285891,
        "lon": 166.2827564128101,
        "alt_km": 20243.879234605385,
        "timestamp": "2025-12-21T05:44:51.829509+00:00",
        "meta_object_name": "GPS BIIF-6  (PRN 06)",
        "meta_object_id": "2014-026A",
        "meta_epoch": "2025-12-18T23:24:45.525888",
        "meta_mean_motion": 2.00561009,
        "meta_eccentricity": 0.00393411,
        "meta_inclination": 56.5812,
        "meta_ra_of_asc_node": 338.5339,
        "meta_arg_of_pericenter": 319.0443,
        "meta_mean_anomaly": 40.6665,
        "meta_ephemeris_type": 0,
        "meta_classification_type": "U",
        "meta_norad_cat_id": 39741,
        "meta_element_set_no": 999,
        "meta_rev_at_epoch": 8492,
        "meta_bstar": 0,
        "meta_mean_motion_dot": -8.1e-07,
        "meta_mean_motion_ddot": 0,
        "tle_line1": "1 39741U 14026A   25352.97552692 -.00000081  00000+0  00000+0 0  9997",
        "tle_line2": "2 39741  56.5812 338.5339 0039341 319.0443  40.6665  2.00561009 84924"
      },
      "geometry": {
        "type": "Point",
        "coordinates": [
          166.2827564128101,
          -11.68851151285891
        ]
      }
    },
    {
      "type": "Feature",
      "properties": {
        "norad_id": 40001,
        "name": "COSMOS 2500 (755)",
        "group": "gnss",
        "lat": 32.88409192339504,
        "lon": -23.004075802301564,
        "alt_km": 19145.510291122264,
        "timestamp": "2025-12-21T05:44:51.829522+00:00",
        "meta_object_name": "COSMOS 2500 (755)",
        "meta_object_id": "2014-032A",
        "meta_epoch": "2025-12-20T06:04:27.939360",
        "meta_mean_motion": 2.13106249,
        "meta_eccentricity": 0.00077498,
        "meta_inclination": 65.339,
        "meta_ra_of_asc_node": 319.7771,
        "meta_arg_of_pericenter": 219.4032,
        "meta_mean_anomaly": 140.5324,
        "meta_ephemeris_type": 0,
        "meta_classification_type": "U",
        "meta_norad_cat_id": 40001,
        "meta_element_set_no": 999,
        "meta_rev_at_epoch": 8964,
        "meta_bstar": 0,
        "meta_mean_motion_dot": -5.3e-07,
        "meta_mean_motion_ddot": 0,
        "tle_line1": "1 40001U 14032A   25354.25310115 -.00000053  00000+0  00000+0 0  9999",
        "tle_line2": "2 40001  65.3390 319.7771 0007749 219.4032 140.5324  2.13106249 89640"
      },
      "geometry": {
        "type": "Point",
        "coordinates": [
          -23.004075802301564,
          32.88409192339504
        ]
      }
    },
    {
      "type": "Feature",
      "properties": {
        "norad_id": 40105,
        "name": "GPS BIIF-7  (PRN 09)",
        "group": "gnss",
        "lat": 37.42663119301305,
        "lon": -116.49591334241671,
        "alt_km": 20092.382620115983,
        "timestamp": "2025-12-21T05:44:51.829534+00:00",
        "meta_object_name": "GPS BIIF-7  (PRN 09)",
        "meta_object_id": "2014-045A",
        "meta_epoch": "2025-12-18T01:34:21.644256",
        "meta_mean_motion": 2.00572958,
        "meta_eccentricity": 0.00325491,
        "meta_inclination": 55.2322,
        "meta_ra_of_asc_node": 95.6864,
        "meta_arg_of_pericenter": 120.0469,
        "meta_mean_anomaly": 240.2601,
        "meta_ephemeris_type": 0,
        "meta_classification_type": "U",
        "meta_norad_cat_id": 40105,
        "meta_element_set_no": 999,
        "meta_rev_at_epoch": 8244,
        "meta_bstar": 0,
        "meta_mean_motion_dot": -3.8e-07,
        "meta_mean_motion_ddot": 0,
        "tle_line1": "1 40105U 14045A   25352.06552829 -.00000038  00000+0  00000+0 0  9998",
        "tle_line2": "2 40105  55.2322  95.6864 0032549 120.0469 240.2601  2.00572958 82445"
      },
      "geometry": {
        "type": "Point",
        "coordinates": [
          -116.49591334241671,
          37.42663119301305
        ]
      }
    }
  ]
}